CCSDS_OMM_VERS = 2.0
CREATION_DATE  = 
ORIGINATOR     = 

OBJECT_NAME    = SHENZHOU-22
OBJECT_ID      = 2025-272A
CENTER_NAME    = EARTH
REF_FRAME      = TEME
TIME_SYSTEM    = UTC
MEAN_ELEMENT_THEORY = SGP/SGP4

EPOCH          = 2025-12-07T06:28:07.735872
MEAN_MOTION    = 15.58832972
ECCENTRICITY   = .00093583
INCLINATION    = 41.4682
RA_OF_ASC_NODE = 49.9091
ARG_OF_PERICENTER = 347.3920
MEAN_ANOMALY   = 12.6683

EPHEMERIS_TYPE = 0
CLASSIFICATION_TYPE = U
NORAD_CAT_ID   = 66645
ELEMENT_SET_NO = 999
REV_AT_EPOCH   = 26300
BSTAR          = .3547841E-3
MEAN_MOTION_DOT = .28044E-3
MEAN_MOTION_DDOT = 0

CCSDS_OMM_VERS = 2.0
CREATION_DATE  = 
ORIGINATOR     = 

OBJECT_NAME    = CZ-2F R/B
OBJECT_ID      = 2025-272B
CENTER_NAME    = EARTH
REF_FRAME      = TEME
TIME_SYSTEM    = UTC
MEAN_ELEMENT_THEORY = SGP/SGP4

EPOCH          = 2025-12-07T13:00:15.028704
MEAN_MOTION    = 16.47453798
ECCENTRICITY   = .002214
INCLINATION    = 41.4535
RA_OF_ASC_NODE = 41.9834
ARG_OF_PERICENTER = 229.6731
MEAN_ANOMALY   = 130.2205

EPHEMERIS_TYPE = 0
CLASSIFICATION_TYPE = U
NORAD_CAT_ID   = 66646
ELEMENT_SET_NO = 999
REV_AT_EPOCH   = 200
BSTAR          = .15075E-3
MEAN_MOTION_DOT = .11903621E+0
MEAN_MOTION_DDOT = .80762E-5

CCSDS_OMM_VERS = 2.0
CREATION_DATE  = 
ORIGINATOR     = 

OBJECT_NAME    = SOYUZ-MS 28
OBJECT_ID      = 2025-275A
CENTER_NAME    = EARTH
REF_FRAME      = TEME
TIME_SYSTEM    = UTC
MEAN_ELEMENT_THEORY = SGP/SGP4

EPOCH          = 2025-12-07T04:30:36.916128
MEAN_MOTION    = 15.49384117
ECCENTRICITY   = .00034959
INCLINATION    = 51.6302
RA_OF_ASC_NODE = 169.9669
ARG_OF_PERICENTER = 214.2568
MEAN_ANOMALY   = 145.8196

EPHEMERIS_TYPE = 0
CLASSIFICATION_TYPE = U
NORAD_CAT_ID   = 66664
ELEMENT_SET_NO = 999
REV_AT_EPOCH   = 128
BSTAR          = .24795554E-3
MEAN_MOTION_DOT = .13419E-3
MEAN_MOTION_DDOT = 0

CCSDS_OMM_VERS = 2.0
CREATION_DATE  = 
ORIGINATOR     = 

OBJECT_NAME    = 1998-067XS
OBJECT_ID      = 1998-067XS
CENTER_NAME    = EARTH
REF_FRAME      = TEME
TIME_SYSTEM    = UTC
MEAN_ELEMENT_THEORY = SGP/SGP4

EPOCH          = 2025-12-06T23:49:06.838464
MEAN_MOTION    = 15.50149490
ECCENTRICITY   = .00041336
INCLINATION    = 51.6299
RA_OF_ASC_NODE = 170.9119
ARG_OF_PERICENTER = 177.8938
MEAN_ANOMALY   = 182.2069

EPHEMERIS_TYPE = 0
CLASSIFICATION_TYPE = U
NORAD_CAT_ID   = 66906
ELEMENT_SET_NO = 999
REV_AT_EPOCH   = 72
BSTAR          = .62682756E-3
MEAN_MOTION_DOT = .35676E-3
MEAN_MOTION_DDOT = 0

CCSDS_OMM_VERS = 2.0
CREATION_DATE  = 
ORIGINATOR     = 

OBJECT_NAME    = 1998-067XT
OBJECT_ID      = 1998-067XT
CENTER_NAME    = EARTH
REF_FRAME      = TEME
TIME_SYSTEM    = UTC
MEAN_ELEMENT_THEORY = SGP/SGP4

EPOCH          = 2025-12-07T05:59:38.363712
MEAN_MOTION    = 15.50548845
ECCENTRICITY   = .00050774
INCLINATION    = 51.6298
RA_OF_ASC_NODE = 169.6308
ARG_OF_PERICENTER = 196.2450
MEAN_ANOMALY   = 163.8377

EPHEMERIS_TYPE = 0
CLASSIFICATION_TYPE = U
NORAD_CAT_ID   = 66907
ELEMENT_SET_NO = 999
REV_AT_EPOCH   = 76
BSTAR          = .13100071E-2
MEAN_MOTION_DOT = .76543E-3
MEAN_MOTION_DDOT = 0

CCSDS_OMM_VERS = 2.0
CREATION_DATE  = 
ORIGINATOR     = 

OBJECT_NAME    = 1998-067XU
OBJECT_ID      = 1998-067XU
CENTER_NAME    = EARTH
REF_FRAME      = TEME
TIME_SYSTEM    = UTC
MEAN_ELEMENT_THEORY = SGP/SGP4

EPOCH          = 2025-12-07T05:59:26.026656
MEAN_MOTION    = 15.50595365
ECCENTRICITY   = .00052733
INCLINATION    = 51.6295
RA_OF_ASC_NODE = 169.6298
ARG_OF_PERICENTER = 195.7563
MEAN_ANOMALY   = 164.3263

EPHEMERIS_TYPE = 0
CLASSIFICATION_TYPE = U
NORAD_CAT_ID   = 66908
ELEMENT_SET_NO = 999
REV_AT_EPOCH   = 76
BSTAR          = .11866563E-2
MEAN_MOTION_DOT = .69346E-3
MEAN_MOTION_DDOT = 0

CCSDS_OMM_VERS = 2.0
CREATION_DATE  = 
ORIGINATOR     = 

OBJECT_NAME    = 1998-067XV
OBJECT_ID      = 1998-067XV
CENTER_NAME    = EARTH
REF_FRAME      = TEME
TIME_SYSTEM    = UTC
MEAN_ELEMENT_THEORY = SGP/SGP4

EPOCH          = 2025-12-06T23:48:09.042912
MEAN_MOTION    = 15.50609226
ECCENTRICITY   = .00052543
INCLINATION    = 51.6296
RA_OF_ASC_NODE = 170.9073
ARG_OF_PERICENTER = 195.3758
MEAN_ANOMALY   = 164.7072

EPHEMERIS_TYPE = 0
CLASSIFICATION_TYPE = U
NORAD_CAT_ID   = 66909
ELEMENT_SET_NO = 999
REV_AT_EPOCH   = 72
BSTAR          = .13867176E-2
MEAN_MOTION_DOT = .81279E-3
MEAN_MOTION_DDOT = 0

CCSDS_OMM_VERS = 2.0
CREATION_DATE  = 
ORIGINATOR     = 

OBJECT_NAME    = 1998-067XW
OBJECT_ID      = 1998-067XW
CENTER_NAME    = EARTH
REF_FRAME      = TEME
TIME_SYSTEM    = UTC
MEAN_ELEMENT_THEORY = SGP/SGP4

EPOCH          = 2025-12-07T05:58:08.485248
MEAN_MOTION    = 15.50882023
ECCENTRICITY   = .0006057
INCLINATION    = 51.6294
RA_OF_ASC_NODE = 169.6237
ARG_OF_PERICENTER = 181.9065
MEAN_ANOMALY   = 178.1903

EPHEMERIS_TYPE = 0
CLASSIFICATION_TYPE = U
NORAD_CAT_ID   = 66910
ELEMENT_SET_NO = 999
REV_AT_EPOCH   = 76
BSTAR          = .12693792E-2
MEAN_MOTION_DOT = .75043E-3
MEAN_MOTION_DDOT = 0

CCSDS_OMM_VERS = 2.0
CREATION_DATE  = 
ORIGINATOR     = 

OBJECT_NAME    = 1998-067XX
OBJECT_ID      = 1998-067XX
CENTER_NAME    = EARTH
REF_FRAME      = TEME
TIME_SYSTEM    = UTC
MEAN_ELEMENT_THEORY = SGP/SGP4

EPOCH          = 2025-12-07T05:57:57.962592
MEAN_MOTION    = 15.50976339
ECCENTRICITY   = .000596
INCLINATION    = 51.6294
RA_OF_ASC_NODE = 169.6228
ARG_OF_PERICENTER = 182.6647
MEAN_ANOMALY   = 177.4311

EPHEMERIS_TYPE = 0
CLASSIFICATION_TYPE = U
NORAD_CAT_ID   = 66911
ELEMENT_SET_NO = 999
REV_AT_EPOCH   = 75
BSTAR          = .14605419E-2
MEAN_MOTION_DOT = .86834E-3
MEAN_MOTION_DDOT = 0

CCSDS_OMM_VERS = 2.0
CREATION_DATE  = 
ORIGINATOR     = 

OBJECT_NAME    = 1998-067XY
OBJECT_ID      = 1998-067XY
CENTER_NAME    = EARTH
REF_FRAME      = TEME
TIME_SYSTEM    = UTC
MEAN_ELEMENT_THEORY = SGP/SGP4

EPOCH          = 2025-12-06T19:10:11.930016
MEAN_MOTION    = 15.50363521
ECCENTRICITY   = .00052356
INCLINATION    = 51.6299
RA_OF_ASC_NODE = 171.8684
ARG_OF_PERICENTER = 194.0341
MEAN_ANOMALY   = 166.0503

EPHEMERIS_TYPE = 0
CLASSIFICATION_TYPE = U
NORAD_CAT_ID   = 66912
ELEMENT_SET_NO = 999
REV_AT_EPOCH   = 68
BSTAR          = .11553511E-2
MEAN_MOTION_DOT = .66928E-3
MEAN_MOTION_DDOT = 0

