SHENZHOU-22             
1 66645U 25272A   25341.26953398  .00028044  00000+0  35478-3 0  9992
2 66645  41.4682  49.9091 0009358 347.3920  12.6683 15.58832972263006
CZ-2F R/B               
1 66646U 25272B   25341.54184061  .11903621  80762-5  15075-3 0  9992
2 66646  41.4535  41.9834 0022140 229.6731 130.2205 16.47453798  2009
SOYUZ-MS 28             
1 66664U 25275A   25341.18792727  .00013419  00000+0  24796-3 0  9995
2 66664  51.6302 169.9669 0003495 214.2568 145.8196 15.49384117  1280
1998-067XS              
1 66906U 98067XS  25340.99244026  .00035676  00000+0  62683-3 0  9991
2 66906  51.6299 170.9119 0004133 177.8938 182.2069 15.50149490   728
1998-067XT              
1 66907U 98067XT  25341.24974958  .00076543  00000+0  13100-2 0  9992
2 66907  51.6298 169.6308 0005077 196.2450 163.8377 15.50548845   763
1998-067XU              
1 66908U 98067XU  25341.24960679  .00069346  00000+0  11867-2 0  9999
2 66908  51.6295 169.6298 0005273 195.7563 164.3263 15.50595365   765
SILVERSAT               
1 66909U 98067XV  25340.99177133  .00081279  00000+0  13867-2 0  9997
2 66909  51.6296 170.9073 0005254 195.3758 164.7072 15.50609226   724
1998-067XW              
1 66910U 98067XW  25341.24870932  .00075043  00000+0  12694-2 0  9994
2 66910  51.6294 169.6237 0006057 181.9065 178.1903 15.50882023   769
1998-067XX              
1 66911U 98067XX  25341.24858753  .00086834  00000+0  14605-2 0  9996
2 66911  51.6294 169.6228 0005960 182.6647 177.4311 15.50976339   754
1998-067XY              
1 66912U 98067XY  25340.79874919  .00066928  00000+0  11554-2 0  9990
2 66912  51.6299 171.8684 0005235 194.0341 166.0503 15.50363521   686
